[{"OBJECT_NAME":"STARLINK-32245","OBJECT_ID":"2024-222V","EPOCH":"2026-03-09T12:41:04.639488","MEAN_MOTION":15.27577866,"ECCENTRICITY":0.0001484,"INCLINATION":42.9989,"RA_OF_ASC_NODE":137.1483,"ARG_OF_PERICENTER":283.7594,"MEAN_ANOMALY":76.3092,"EPHEMERIS_TYPE":0,"CLASSIFICATION_TYPE":"U","NORAD_CAT_ID":62133,"ELEMENT_SET_NO":999,"REV_AT_EPOCH":7288,"BSTAR":0.00082597,"MEAN_MOTION_DOT":0.00022535,"MEAN_MOTION_DDOT":0},{"OBJECT_NAME":"CZ-6A DEB","OBJECT_ID":"2024-140BH","EPOCH":"2026-03-09T12:42:23.031936","MEAN_MOTION":15.05550408,"ECCENTRICITY":0.0121353,"INCLINATION":89.148,"RA_OF_ASC_NODE":290.4372,"ARG_OF_PERICENTER":169.3672,"MEAN_ANOMALY":191.0177,"EPHEMERIS_TYPE":0,"CLASSIFICATION_TYPE":"U","NORAD_CAT_ID":60656,"ELEMENT_SET_NO":999,"REV_AT_EPOCH":8464,"BSTAR":0.002338,"MEAN_MOTION_DOT":0.00039913,"MEAN_MOTION_DDOT":0}]
